CARTOSAT-2A             
1 32783U 08021A   26190.84216510  .00000626  00000+0  90847-4 0  9994
2 32783  97.7624 238.7763 0012877  43.3728 316.8495 14.79273309982154
CARTOSAT-2B             
1 36795U 10035A   26190.87402777 -.00000161  00000+0 -14781-4 0  9993
2 36795  97.9943 241.2773 0012446 114.4233 245.8278 14.78611521863205
CARBONITE 1 (CBNT-1)    
1 40718U 15032D   26190.84374281  .00001346  00000+0  16898-3 0  9994
2 40718  97.6523   7.9637 0013447 215.6538 144.3780 14.83657681592704
CARTOSAT-2C             
1 41599U 16040A   26190.84966782  .00001653  00000+0  81656-4 0  9991
2 41599  97.4471 250.5144 0009917  60.8319 299.3907 15.19235223557151
CARTOSAT-2D             
1 41948U 17008A   26190.88148972  .00002030  00000+0  99505-4 0  9993
2 41948  97.4099 249.7618 0005566 153.0475 207.1050 15.19257957521026
CARTOSAT-2E             
1 42767U 17036C   26190.83329126  .00001925  00000+0  94628-4 0  9994
2 42767  97.4267 250.2611 0002721 211.1833 148.9241 15.19227395501583
CARTOSAT-2F             
1 43111U 18004A   26190.86590083  .00001275  00000+0  63753-4 0  9992
2 43111  97.4777 250.2777 0002286 144.5233 215.6154 15.19241385470771
CARTOSAT-3              
1 44804U 19081A   26190.88019439  .00002562  00000+0  12436-3 0  9992
2 44804  97.4296 252.3809 0013475  77.7914 282.4829 15.19300067366915
CARBSAR                 
1 67397U 26004AL  26190.76063567  .00004071  00000+0  19293-3 0  9990
2 67397  97.4546 189.6555 0003719 248.3302 111.7537 15.19863686 27197
CAPELLA-20 (ACADIA-10)  
1 68485U 26067BX  26189.89298105  .00004360  00000+0  43769-3 0  9994
2 68485  97.7579 147.8414 0001190 153.1850 206.9430 14.91798857 14963
